start=new Date('2023-05-31T00:00:00.000Z').valueOf();
sats=[{"TLE_LINE2":"2 55379  43.0043  61.9545 0001141 258.3829 101.6885 15.02535891 19052","RA_OF_ASC_NODE":"61.9545","GP_ID":"232857363","DECAY_DATE":null,"PERIOD":"95.838","REF_FRAME":"TEME","PERIAPSIS":"558.290","SEMIMAJOR_AXIS":"6937.217","MEAN_ANOMALY":"101.6885","ELEMENT_SET_NO":"999","BSTAR":"0.00010348000000","CLASSIFICATION_TYPE":"U","SITE":"AFETR","MEAN_ELEMENT_THEORY":"SGP4","ECCENTRICITY":"0.00011410","RCS_SIZE":"LARGE","LAUNCH_DATE":"2023-01-26","ARG_OF_PERICENTER":"258.3829","REV_AT_EPOCH":"1905","EPHEMERIS_TYPE":"0","APOAPSIS":"559.873","INCLINATION":"43.0043","OBJECT_TYPE":"PAYLOAD","MEAN_MOTION":"15.02535891","TIME_SYSTEM":"UTC","MEAN_MOTION_DOT":"0.00001194","CENTER_NAME":"EARTH","OBJECT_ID":"2023-013BA","MEAN_MOTION_DDOT":"0.0000000000000","COUNTRY_CODE":"US","FILE":"3921192","NORAD_CAT_ID":"55379","OBJECT_NAME":"STARLINK-5569","TLE_LINE1":"1 55379U 23013BA  23150.83526693  .00001194  00000-0  10348-3 0  9995","EPOCH":"2023-05-30T20:02:47.062752"},{"REV_AT_EPOCH":"1935","EPHEMERIS_TYPE":"0","ARG_OF_PERICENTER":"278.4278","APOAPSIS":"560.025","OBJECT_TYPE":"PAYLOAD","MEAN_MOTION":"15.02545803","INCLINATION":"43.0040","TIME_SYSTEM":"UTC","CENTER_NAME":"EARTH","MEAN_MOTION_DOT":"0.00000082","COUNTRY_CODE":"US","FILE":"3921192","OBJECT_ID":"2023-013BB","MEAN_MOTION_DDOT":"0.0000000000000","NORAD_CAT_ID":"55380","EPOCH":"2023-05-30T20:19:29.966304","OBJECT_NAME":"STARLINK-5571","TLE_LINE1":"1 55380U 23013BB  23150.84687461  .00000082  00000-0  21167-4 0  9996","GP_ID":"232855611","TLE_LINE2":"2 55380  43.0040  36.0430 0001404 278.4278  81.6405 15.02545803 19352","RA_OF_ASC_NODE":"36.0430","PERIOD":"95.837","DECAY_DATE":null,"SEMIMAJOR_AXIS":"6937.186","MEAN_ANOMALY":"81.6405","PERIAPSIS":"558.077","REF_FRAME":"TEME","ELEMENT_SET_NO":"999","CLASSIFICATION_TYPE":"U","SITE":"AFETR","BSTAR":"0.00002116700000","MEAN_ELEMENT_THEORY":"SGP4","ECCENTRICITY":"0.00014040","RCS_SIZE":"LARGE","LAUNCH_DATE":"2023-01-26"},{"REV_AT_EPOCH":"1896","EPHEMERIS_TYPE":"0","ARG_OF_PERICENTER":"279.0880","APOAPSIS":"559.995","OBJECT_TYPE":"PAYLOAD","MEAN_MOTION":"15.02536499","INCLINATION":"43.0046","TIME_SYSTEM":"UTC","CENTER_NAME":"EARTH","MEAN_MOTION_DOT":"-0.00000508","COUNTRY_CODE":"US","FILE":"3920920","OBJECT_ID":"2023-013BC","MEAN_MOTION_DDOT":"0.0000000000000","NORAD_CAT_ID":"55381","EPOCH":"2023-05-30T05:36:26.259264","TLE_LINE1":"1 55381U 23013BC  23150.23363726 -.00000508  00000-0 -22510-4 0  9993","OBJECT_NAME":"STARLINK-5575","GP_ID":"232822684","TLE_LINE2":"2 55381  43.0046  65.1772 0001319 279.0880  80.9813 15.02536499 18964","RA_OF_ASC_NODE":"65.1772","PERIOD":"95.838","DECAY_DATE":null,"SEMIMAJOR_AXIS":"6937.215","MEAN_ANOMALY":"80.9813","REF_FRAME":"TEME","PERIAPSIS":"558.165","ELEMENT_SET_NO":"999","CLASSIFICATION_TYPE":"U","SITE":"AFETR","BSTAR":"-0.00002251000000","MEAN_ELEMENT_THEORY":"SGP4","ECCENTRICITY":"0.00013190","RCS_SIZE":"LARGE","LAUNCH_DATE":"2023-01-26"},{"MEAN_ELEMENT_THEORY":"SGP4","CLASSIFICATION_TYPE":"U","SITE":"AFETR","BSTAR":"0.00002466600000","RCS_SIZE":"LARGE","LAUNCH_DATE":"2023-01-26","ECCENTRICITY":"0.00010850","DECAY_DATE":null,"PERIOD":"95.838","GP_ID":"232857113","TLE_LINE2":"2 55382  43.0049  61.9979 0001085 266.1136  93.9583 15.02538450 19050","RA_OF_ASC_NODE":"61.9979","ELEMENT_SET_NO":"999","SEMIMAJOR_AXIS":"6937.209","MEAN_ANOMALY":"93.9583","REF_FRAME":"TEME","PERIAPSIS":"558.321","COUNTRY_CODE":"US","FILE":"3921192","OBJECT_ID":"2023-013BD","MEAN_MOTION_DDOT":"0.0000000000000","CENTER_NAME":"EARTH","MEAN_MOTION_DOT":"0.00000130","EPOCH":"2023-05-30T20:10:46.476480","TLE_LINE1":"1 55382U 23013BD  23150.84081570  .00000130  00000-0  24666-4 0  9998","OBJECT_NAME":"STARLINK-5576","NORAD_CAT_ID":"55382","APOAPSIS":"559.827","EPHEMERIS_TYPE":"0","REV_AT_EPOCH":"1905","ARG_OF_PERICENTER":"266.1136","TIME_SYSTEM":"UTC","MEAN_MOTION":"15.02538450","OBJECT_TYPE":"PAYLOAD","INCLINATION":"43.0049"},{"ELEMENT_SET_NO":"999","SEMIMAJOR_AXIS":"6937.193","MEAN_ANOMALY":"84.0901","REF_FRAME":"TEME","PERIAPSIS":"558.037","PERIOD":"95.837","DECAY_DATE":null,"GP_ID":"232856863","TLE_LINE2":"2 55383  43.0041  36.0218 0001471 275.9774  84.0901 15.02543731 19353","RA_OF_ASC_NODE":"36.0218","RCS_SIZE":"LARGE","LAUNCH_DATE":"2023-01-26","ECCENTRICITY":"0.00014710","MEAN_ELEMENT_THEORY":"SGP4","CLASSIFICATION_TYPE":"U","SITE":"AFETR","BSTAR":"0.00000723610000","TIME_SYSTEM":"UTC","MEAN_MOTION":"15.02543731","OBJECT_TYPE":"PAYLOAD","INCLINATION":"43.0041","APOAPSIS":"560.078","REV_AT_EPOCH":"1935","EPHEMERIS_TYPE":"0","ARG_OF_PERICENTER":"275.9774","EPOCH":"2023-05-30T20:16:18.090048","TLE_LINE1":"1 55383U 23013BE  23150.84465382 -.00000106  00000-0  72361-5 0  9996","OBJECT_NAME":"STARLINK-5531","NORAD_CAT_ID":"55383","COUNTRY_CODE":"US","FILE":"3921192","OBJECT_ID":"2023-013BE","MEAN_MOTION_DDOT":"0.0000000000000","CENTER_NAME":"EARTH","MEAN_MOTION_DOT":"-0.00000106"},{"COUNTRY_CODE":"US","FILE":"3921192","OBJECT_ID":"2023-013BF","MEAN_MOTION_DDOT":"0.0000000000000","CENTER_NAME":"EARTH","MEAN_MOTION_DOT":"0.00000419","EPOCH":"2023-05-30T20:05:58.801632","OBJECT_NAME":"STARLINK-5537","TLE_LINE1":"1 55384U 23013BF  23150.83748613  .00000419  00000-0  46079-4 0  9999","NORAD_CAT_ID":"55384","APOAPSIS":"560.146","REV_AT_EPOCH":"1905","EPHEMERIS_TYPE":"0","ARG_OF_PERICENTER":"237.2121","TIME_SYSTEM":"UTC","MEAN_MOTION":"15.02535484","OBJECT_TYPE":"PAYLOAD","INCLINATION":"43.0043","MEAN_ELEMENT_THEORY":"SGP4","CLASSIFICATION_TYPE":"U","SITE":"AFETR","BSTAR":"0.00004607900000","RCS_SIZE":"LARGE","LAUNCH_DATE":"2023-01-26","ECCENTRICITY":"0.00015320","DECAY_DATE":null,"PERIOD":"95.838","GP_ID":"232856112","TLE_LINE2":"2 55384  43.0043  61.9728 0001532 237.2121 122.8574 15.02535484 19054","RA_OF_ASC_NODE":"61.9728","ELEMENT_SET_NO":"999","SEMIMAJOR_AXIS":"6937.218","MEAN_ANOMALY":"122.8574","REF_FRAME":"TEME","PERIAPSIS":"558.020"},{"COUNTRY_CODE":"US","FILE":"3921192","OBJECT_ID":"2023-013BG","MEAN_MOTION_DDOT":"0.0000000000000","CENTER_NAME":"EARTH","MEAN_MOTION_DOT":"0.00001134","EPOCH":"2023-05-30T18:09:28.342656","OBJECT_NAME":"STARLINK-5556","TLE_LINE1":"1 55385U 23013BG  23150.75657804  .00001134  00000-0  99002-4 0  9991","NORAD_CAT_ID":"55385","APOAPSIS":"559.986","REV_AT_EPOCH":"1904","EPHEMERIS_TYPE":"0","ARG_OF_PERICENTER":"262.8572","TIME_SYSTEM":"UTC","OBJECT_TYPE":"PAYLOAD","MEAN_MOTION":"15.02536081","INCLINATION":"43.0047","MEAN_ELEMENT_THEORY":"SGP4","CLASSIFICATION_TYPE":"U","SITE":"AFETR","BSTAR":"0.00009900200000","RCS_SIZE":"LARGE","LAUNCH_DATE":"2023-01-26","ECCENTRICITY":"0.00013040","DECAY_DATE":null,"PERIOD":"95.838","GP_ID":"232856362","TLE_LINE2":"2 55385  43.0047  62.2199 0001304 262.8572  97.2122 15.02536081 19043","RA_OF_ASC_NODE":"62.2199","ELEMENT_SET_NO":"999","SEMIMAJOR_AXIS":"6937.216","MEAN_ANOMALY":"97.2122","PERIAPSIS":"558.177","REF_FRAME":"TEME"},{"APOAPSIS":"560.082","EPHEMERIS_TYPE":"0","REV_AT_EPOCH":"1905","ARG_OF_PERICENTER":"273.9926","TIME_SYSTEM":"UTC","OBJECT_TYPE":"PAYLOAD","MEAN_MOTION":"15.02545691","INCLINATION":"43.0036","COUNTRY_CODE":"US","FILE":"3921192","OBJECT_ID":"2023-013BH","MEAN_MOTION_DDOT":"0.0000000000000","CENTER_NAME":"EARTH","MEAN_MOTION_DOT":"0.00003102","EPOCH":"2023-05-30T19:49:59.412576","OBJECT_NAME":"STARLINK-5555","TLE_LINE1":"1 55386U 23013BH  23150.82638209  .00003102  00000-0  24454-3 0  9993","NORAD_CAT_ID":"55386","DECAY_DATE":null,"PERIOD":"95.837","GP_ID":"232856613","TLE_LINE2":"2 55386  43.0036  61.8838 0001485 273.9926  86.0746 15.02545691 19059","RA_OF_ASC_NODE":"61.8838","ELEMENT_SET_NO":"999","SEMIMAJOR_AXIS":"6937.187","MEAN_ANOMALY":"86.0746","REF_FRAME":"TEME","PERIAPSIS":"558.022","MEAN_ELEMENT_THEORY":"SGP4","CLASSIFICATION_TYPE":"U","SITE":"AFETR","BSTAR":"0.00024454000000","RCS_SIZE":"LARGE","LAUNCH_DATE":"2023-01-26","ECCENTRICITY":"0.00014850"},{"FILE":"3921192","COUNTRY_CODE":"US","MEAN_MOTION_DDOT":"0.0000000000000","OBJECT_ID":"2023-014A","CENTER_NAME":"EARTH","MEAN_MOTION_DOT":"0.00000394","EPOCH":"2023-05-30T15:20:38.948352","TLE_LINE1":"1 55391U 23014A   23150.63933968  .00000394  00000-0  50425-5 0  9998","OBJECT_NAME":"STARLINK-5077","NORAD_CAT_ID":"55391","APOAPSIS":"361.066","REV_AT_EPOCH":"1981","EPHEMERIS_TYPE":"0","ARG_OF_PERICENTER":"274.9232","TIME_SYSTEM":"UTC","MEAN_MOTION":"15.69918958","OBJECT_TYPE":"PAYLOAD","INCLINATION":"69.9976","MEAN_ELEMENT_THEORY":"SGP4","SITE":"AFWTR","CLASSIFICATION_TYPE":"U","BSTAR":"0.00000504250000","LAUNCH_DATE":"2023-01-31","RCS_SIZE":"LARGE","ECCENTRICITY":"0.00028730","DECAY_DATE":null,"PERIOD":"91.724","GP_ID":"232857364","RA_OF_ASC_NODE":"115.2398","TLE_LINE2":"2 55391  69.9976 115.2398 0002873 274.9232  85.1636 15.69918958 19818","ELEMENT_SET_NO":"999","MEAN_ANOMALY":"85.1636","SEMIMAJOR_AXIS":"6737.266","REF_FRAME":"TEME","PERIAPSIS":"357.195"},{"ELEMENT_SET_NO":"999","MEAN_ANOMALY":"96.3365","SEMIMAJOR_AXIS":"6737.253","PERIAPSIS":"356.861","REF_FRAME":"TEME","PERIOD":"91.724","DECAY_DATE":null,"GP_ID":"232822435","RA_OF_ASC_NODE":"116.1400","TLE_LINE2":"2 55392  69.9973 116.1400 0003350 263.7449  96.3365 15.69923372 19760","LAUNCH_DATE":"2023-01-31","RCS_SIZE":"LARGE","ECCENTRICITY":"0.00033500","MEAN_ELEMENT_THEORY":"SGP4","SITE":"AFWTR","CLASSIFICATION_TYPE":"U","BSTAR":"0.00000237970000","TIME_SYSTEM":"UTC","OBJECT_TYPE":"PAYLOAD","MEAN_MOTION":"15.69923372","INCLINATION":"69.9973","APOAPSIS":"361.375","REV_AT_EPOCH":"1976","EPHEMERIS_TYPE":"0","ARG_OF_PERICENTER":"263.7449","EPOCH":"2023-05-30T07:38:30.555744","OBJECT_NAME":"STARLINK-5085","TLE_LINE1":"1 55392U 23014B   23150.31840921  .00000073  00000-0  23797-5 0  9996","NORAD_CAT_ID":"55392","FILE":"3920920","COUNTRY_CODE":"US","MEAN_MOTION_DDOT":"0.0000000000000","OBJECT_ID":"2023-014B","CENTER_NAME":"EARTH","MEAN_MOTION_DOT":"0.00000073"}];
